[{"OBJECT_NAME":"STARLINK-32313","OBJECT_ID":"2024-183U","EPOCH":"2026-03-09T12:38:24.595584","MEAN_MOTION":15.30190362,"ECCENTRICITY":0.00012701,"INCLINATION":53.1606,"RA_OF_ASC_NODE":143.4622,"ARG_OF_PERICENTER":105.6514,"MEAN_ANOMALY":254.4627,"EPHEMERIS_TYPE":0,"CLASSIFICATION_TYPE":"U","NORAD_CAT_ID":61527,"ELEMENT_SET_NO":999,"REV_AT_EPOCH":7962,"BSTAR":5.216591e-5,"MEAN_MOTION_DOT":1.186e-5,"MEAN_MOTION_DDOT":0},{"OBJECT_NAME":"TRANSPORTER-1 OBJECT M","OBJECT_ID":"2021-006M","EPOCH":"2026-03-09T22:05:37.843296","MEAN_MOTION":15.3227845,"ECCENTRICITY":0.00102759,"INCLINATION":97.2377,"RA_OF_ASC_NODE":116.7915,"ARG_OF_PERICENTER":187.5492,"MEAN_ANOMALY":172.5597,"EPHEMERIS_TYPE":0,"CLASSIFICATION_TYPE":"U","NORAD_CAT_ID":47424,"ELEMENT_SET_NO":999,"REV_AT_EPOCH":28439,"BSTAR":0.00023985652,"MEAN_MOTION_DOT":7.411e-5,"MEAN_MOTION_DDOT":0}]
